start=new Date('2022-10-17T00:00:00.000Z').valueOf();
sats=[{"INCLINATION":"53.2175","PERIOD":"95.438","GP_ID":"215349998","OBJECT_NAME":"STARLINK-4525","RA_OF_ASC_NODE":"289.6685","EPOCH":"2022-10-16T22:00:00.999936","BSTAR":"0.00140060000000","ARG_OF_PERICENTER":"51.9921","TLE_LINE2":"2 53401  53.2175 289.6685 0001742  51.9921 215.3047 15.08833763  1303","EPHEMERIS_TYPE":"0","PERIAPSIS":"538.559","OBJECT_TYPE":"PAYLOAD","MEAN_MOTION":"15.08833763","MEAN_MOTION_DOT":"0.00022069","LAUNCH_DATE":"2022-08-10","DECAY_DATE":null,"ELEMENT_SET_NO":"999","NORAD_CAT_ID":"53401","TLE_LINE1":"1 53401U 22097P   22289.91667824  .00022069  00000-0  14006-2 0  9991","FILE":"3617955","SEMIMAJOR_AXIS":"6917.899","SITE":"AFETR","CLASSIFICATION_TYPE":"U","APOAPSIS":"540.970","ECCENTRICITY":"0.00017420","MEAN_ELEMENT_THEORY":"SGP4","CENTER_NAME":"EARTH","COUNTRY_CODE":"US","REV_AT_EPOCH":"130","RCS_SIZE":"LARGE","REF_FRAME":"TEME","MEAN_MOTION_DDOT":"0.0000000000000","MEAN_ANOMALY":"215.3047","TIME_SYSTEM":"UTC","OBJECT_ID":"2022-097P"},{"INCLINATION":"53.2164","GP_ID":"215349664","OBJECT_NAME":"STARLINK-4499","PERIOD":"95.440","RA_OF_ASC_NODE":"289.6625","BSTAR":"0.00365050000000","ARG_OF_PERICENTER":"47.1173","EPOCH":"2022-10-16T22:00:00.999936","TLE_LINE2":"2 53402  53.2164 289.6625 0001603  47.1173 320.1741 15.08804925  1302","OBJECT_TYPE":"PAYLOAD","PERIAPSIS":"538.744","EPHEMERIS_TYPE":"0","MEAN_MOTION_DOT":"0.00058234","MEAN_MOTION":"15.08804925","DECAY_DATE":null,"LAUNCH_DATE":"2022-08-10","TLE_LINE1":"1 53402U 22097Q   22289.91667824  .00058234  00000-0  36505-2 0  9993","FILE":"3617955","ELEMENT_SET_NO":"999","NORAD_CAT_ID":"53402","CLASSIFICATION_TYPE":"U","SEMIMAJOR_AXIS":"6917.988","SITE":"AFETR","ECCENTRICITY":"0.00016030","APOAPSIS":"540.962","MEAN_ELEMENT_THEORY":"SGP4","CENTER_NAME":"EARTH","REV_AT_EPOCH":"130","COUNTRY_CODE":"US","MEAN_MOTION_DDOT":"0.0000000000000","MEAN_ANOMALY":"320.1741","REF_FRAME":"TEME","RCS_SIZE":"LARGE","OBJECT_ID":"2022-097Q","TIME_SYSTEM":"UTC"},{"INCLINATION":"53.2161","PERIOD":"95.440","GP_ID":"215350414","OBJECT_NAME":"STARLINK-4507","RA_OF_ASC_NODE":"289.6640","EPOCH":"2022-10-16T22:00:00.999936","BSTAR":"0.00359020000000","ARG_OF_PERICENTER":"55.9018","TLE_LINE2":"2 53403  53.2161 289.6640 0001697  55.9018 246.2391 15.08802114  1302","EPHEMERIS_TYPE":"0","PERIAPSIS":"538.687","OBJECT_TYPE":"PAYLOAD","MEAN_MOTION":"15.08802114","MEAN_MOTION_DOT":"0.00057255","LAUNCH_DATE":"2022-08-10","DECAY_DATE":null,"NORAD_CAT_ID":"53403","ELEMENT_SET_NO":"999","FILE":"3617955","TLE_LINE1":"1 53403U 22097R   22289.91667824  .00057255  00000-0  35902-2 0  9996","SEMIMAJOR_AXIS":"6917.996","SITE":"AFETR","CLASSIFICATION_TYPE":"U","ECCENTRICITY":"0.00016970","APOAPSIS":"541.035","MEAN_ELEMENT_THEORY":"SGP4","CENTER_NAME":"EARTH","COUNTRY_CODE":"US","REV_AT_EPOCH":"130","RCS_SIZE":"MEDIUM","REF_FRAME":"TEME","MEAN_ANOMALY":"246.2391","MEAN_MOTION_DDOT":"0.0000000000000","TIME_SYSTEM":"UTC","OBJECT_ID":"2022-097R"},{"PERIAPSIS":"536.215","OBJECT_TYPE":"PAYLOAD","EPHEMERIS_TYPE":"0","TLE_LINE2":"2 53404  53.2172 279.6732 0001585  59.3944   2.2051 15.09636889  1306","DECAY_DATE":null,"LAUNCH_DATE":"2022-08-10","MEAN_MOTION_DOT":"-0.00794874","MEAN_MOTION":"15.09636889","GP_ID":"215349414","OBJECT_NAME":"STARLINK-4509","PERIOD":"95.387","INCLINATION":"53.2172","ARG_OF_PERICENTER":"59.3944","BSTAR":"-0.05226100000000","EPOCH":"2022-10-16T22:00:00.999936","RA_OF_ASC_NODE":"279.6732","REV_AT_EPOCH":"130","COUNTRY_CODE":"US","CENTER_NAME":"EARTH","OBJECT_ID":"2022-097S","TIME_SYSTEM":"UTC","MEAN_ANOMALY":"2.2051","MEAN_MOTION_DDOT":"0.0000000000000","RCS_SIZE":"LARGE","REF_FRAME":"TEME","CLASSIFICATION_TYPE":"U","SITE":"AFETR","SEMIMAJOR_AXIS":"6915.446","FILE":"3617955","TLE_LINE1":"1 53404U 22097S   22289.91667824 -.00794874  00000-0 -52261-1 0  9990","NORAD_CAT_ID":"53404","ELEMENT_SET_NO":"999","MEAN_ELEMENT_THEORY":"SGP4","ECCENTRICITY":"0.00015850","APOAPSIS":"538.407"},{"ECCENTRICITY":"0.00014620","APOAPSIS":"540.816","MEAN_ELEMENT_THEORY":"SGP4","NORAD_CAT_ID":"53405","ELEMENT_SET_NO":"999","TLE_LINE1":"1 53405U 22097T   22289.91667824  .00047473  00000-0  29825-2 0  9996","FILE":"3617955","SITE":"AFETR","SEMIMAJOR_AXIS":"6917.939","CLASSIFICATION_TYPE":"U","REF_FRAME":"TEME","RCS_SIZE":"LARGE","MEAN_MOTION_DDOT":"0.0000000000000","MEAN_ANOMALY":"328.8819","TIME_SYSTEM":"UTC","OBJECT_ID":"2022-097T","CENTER_NAME":"EARTH","COUNTRY_CODE":"US","REV_AT_EPOCH":"130","RA_OF_ASC_NODE":"289.6665","EPOCH":"2022-10-16T22:00:00.999936","BSTAR":"0.00298250000000","ARG_OF_PERICENTER":"58.3872","INCLINATION":"53.2180","PERIOD":"95.439","OBJECT_NAME":"STARLINK-4510","GP_ID":"215350247","MEAN_MOTION":"15.08820782","MEAN_MOTION_DOT":"0.00047473","LAUNCH_DATE":"2022-08-10","DECAY_DATE":null,"TLE_LINE2":"2 53405  53.2180 289.6665 0001462  58.3872 328.8819 15.08820782  1300","EPHEMERIS_TYPE":"0","PERIAPSIS":"538.793","OBJECT_TYPE":"PAYLOAD"},{"COUNTRY_CODE":"US","REV_AT_EPOCH":"130","CENTER_NAME":"EARTH","TIME_SYSTEM":"UTC","OBJECT_ID":"2022-097U","RCS_SIZE":"LARGE","REF_FRAME":"TEME","MEAN_ANOMALY":"104.4216","MEAN_MOTION_DDOT":"0.0000000000000","SEMIMAJOR_AXIS":"6910.642","SITE":"AFETR","CLASSIFICATION_TYPE":"U","ELEMENT_SET_NO":"999","NORAD_CAT_ID":"53406","FILE":"3617955","TLE_LINE1":"1 53406U 22097U   22289.91667824 -.01075346  00000-0 -68375-1 0  9992","MEAN_ELEMENT_THEORY":"SGP4","ECCENTRICITY":"0.00016530","APOAPSIS":"533.649","EPHEMERIS_TYPE":"0","PERIAPSIS":"531.365","OBJECT_TYPE":"PAYLOAD","TLE_LINE2":"2 53406  53.2174 279.6823 0001653  53.3590 104.4216 15.11211170  1301","LAUNCH_DATE":"2022-08-10","DECAY_DATE":null,"MEAN_MOTION":"15.11211170","MEAN_MOTION_DOT":"-0.01075346","PERIOD":"95.288","OBJECT_NAME":"STARLINK-4533","GP_ID":"215349247","INCLINATION":"53.2174","EPOCH":"2022-10-16T22:00:00.999936","BSTAR":"-0.06837500000000","ARG_OF_PERICENTER":"53.3590","RA_OF_ASC_NODE":"279.6823"},{"CLASSIFICATION_TYPE":"U","SITE":"AFETR","SEMIMAJOR_AXIS":"6778.208","TLE_LINE1":"1 53407U 22097V   22289.91667824 -.01132446  00000-0 -17892-1 0  9996","FILE":"3617955","NORAD_CAT_ID":"53407","ELEMENT_SET_NO":"999","MEAN_ELEMENT_THEORY":"SGP4","APOAPSIS":"400.906","ECCENTRICITY":"0.00012300","REV_AT_EPOCH":"130","COUNTRY_CODE":"US","CENTER_NAME":"EARTH","OBJECT_ID":"2022-097V","TIME_SYSTEM":"UTC","MEAN_MOTION_DDOT":"0.0000000000000","MEAN_ANOMALY":"53.9410","REF_FRAME":"TEME","RCS_SIZE":"LARGE","OBJECT_NAME":"STARLINK-4537","GP_ID":"215350165","PERIOD":"92.562","INCLINATION":"53.2175","ARG_OF_PERICENTER":"93.3721","BSTAR":"-0.01789200000000","EPOCH":"2022-10-16T22:00:00.999936","RA_OF_ASC_NODE":"273.3596","PERIAPSIS":"399.239","OBJECT_TYPE":"PAYLOAD","EPHEMERIS_TYPE":"0","TLE_LINE2":"2 53407  53.2175 273.3596 0001230  93.3721  53.9410 15.55716542  1307","DECAY_DATE":null,"LAUNCH_DATE":"2022-08-10","MEAN_MOTION_DOT":"-0.01132446","MEAN_MOTION":"15.55716542"},{"CENTER_NAME":"EARTH","COUNTRY_CODE":"US","REV_AT_EPOCH":"130","REF_FRAME":"TEME","RCS_SIZE":"LARGE","MEAN_ANOMALY":"33.0716","MEAN_MOTION_DDOT":"0.0000000000000","TIME_SYSTEM":"UTC","OBJECT_ID":"2022-097W","NORAD_CAT_ID":"53408","ELEMENT_SET_NO":"999","FILE":"3617955","TLE_LINE1":"1 53408U 22097W   22289.91667824 -.01076723  00000-0 -70179-1 0  9999","SEMIMAJOR_AXIS":"6913.342","SITE":"AFETR","CLASSIFICATION_TYPE":"U","ECCENTRICITY":"0.00014540","APOAPSIS":"536.212","MEAN_ELEMENT_THEORY":"SGP4","TLE_LINE2":"2 53408  53.2173 279.6764 0001454  67.4068  33.0716 15.10325944  1307","EPHEMERIS_TYPE":"0","OBJECT_TYPE":"PAYLOAD","PERIAPSIS":"534.202","MEAN_MOTION":"15.10325944","MEAN_MOTION_DOT":"-0.01076723","LAUNCH_DATE":"2022-08-10","DECAY_DATE":null,"INCLINATION":"53.2173","PERIOD":"95.344","GP_ID":"215349831","OBJECT_NAME":"STARLINK-4491","RA_OF_ASC_NODE":"279.6764","EPOCH":"2022-10-16T22:00:00.999936","ARG_OF_PERICENTER":"67.4068","BSTAR":"-0.07017900000000"},{"APOAPSIS":"400.916","ECCENTRICITY":"0.00012550","MEAN_ELEMENT_THEORY":"SGP4","NORAD_CAT_ID":"53409","ELEMENT_SET_NO":"999","FILE":"3617955","TLE_LINE1":"1 53409U 22097X   22289.91667824 -.01132434  00000-0 -17890-1 0  9993","SITE":"AFETR","SEMIMAJOR_AXIS":"6778.200","CLASSIFICATION_TYPE":"U","RCS_SIZE":"LARGE","REF_FRAME":"TEME","MEAN_ANOMALY":"45.6878","MEAN_MOTION_DDOT":"0.0000000000000","TIME_SYSTEM":"UTC","OBJECT_ID":"2022-097X","CENTER_NAME":"EARTH","COUNTRY_CODE":"US","REV_AT_EPOCH":"130","RA_OF_ASC_NODE":"273.3571","EPOCH":"2022-10-16T22:00:00.999936","ARG_OF_PERICENTER":"102.8812","BSTAR":"-0.01789000000000","INCLINATION":"53.2175","PERIOD":"92.562","GP_ID":"215349999","OBJECT_NAME":"STARLINK-4490","MEAN_MOTION":"15.55719022","MEAN_MOTION_DOT":"-0.01132434","LAUNCH_DATE":"2022-08-10","DECAY_DATE":null,"TLE_LINE2":"2 53409  53.2175 273.3571 0001255 102.8812  45.6878 15.55719022  1308","EPHEMERIS_TYPE":"0","PERIAPSIS":"399.215","OBJECT_TYPE":"PAYLOAD"},{"COUNTRY_CODE":"US","REV_AT_EPOCH":"130","CENTER_NAME":"EARTH","TIME_SYSTEM":"UTC","OBJECT_ID":"2022-097Y","RCS_SIZE":"LARGE","REF_FRAME":"TEME","MEAN_MOTION_DDOT":"0.0000000000000","MEAN_ANOMALY":"59.9549","SITE":"AFETR","SEMIMAJOR_AXIS":"6912.444","CLASSIFICATION_TYPE":"U","NORAD_CAT_ID":"53410","ELEMENT_SET_NO":"999","TLE_LINE1":"1 53410U 22097Y   22289.91667824 -.01074406  00000-0 -69445-1 0  9992","FILE":"3617955","MEAN_ELEMENT_THEORY":"SGP4","APOAPSIS":"535.381","ECCENTRICITY":"0.00015500","EPHEMERIS_TYPE":"0","PERIAPSIS":"533.238","OBJECT_TYPE":"PAYLOAD","TLE_LINE2":"2 53410  53.2173 279.6783 0001550  59.7622  59.9549 15.10620208  1300","LAUNCH_DATE":"2022-08-10","DECAY_DATE":null,"MEAN_MOTION":"15.10620208","MEAN_MOTION_DOT":"-0.01074406","PERIOD":"95.325","GP_ID":"215349665","OBJECT_NAME":"STARLINK-4492","INCLINATION":"53.2173","EPOCH":"2022-10-16T22:00:00.999936","BSTAR":"-0.06944500000000","ARG_OF_PERICENTER":"59.7622","RA_OF_ASC_NODE":"279.6783"}];
